CALSPHERE 1             
1 00900U 64063C   22274.35502458  .00000630  00000+0  66082-3 0  9990
2 00900  90.1809  42.8543 0028295  66.6865 346.8802 13.73905164885200
CALSPHERE 2             
1 00902U 64063E   22274.37707639  .00000079  00000+0  10529-3 0  9994
2 00902  90.1944  46.0039 0017900 194.4324 224.4782 13.52723017673091
LCS 1                   
1 01361U 65034C   22274.34699750  .00000011  00000+0  39026-3 0  9993
2 01361  32.1379 153.8663 0012553 252.9744 106.9378  9.89302139 75717
TEMPSAT 1               
1 01512U 65065E   22274.59023549  .00000071  00000+0  12329-3 0  9992
2 01512  89.9214 217.7909 0071957  92.3139  84.7736 13.33456229779517
CALSPHERE 4A            
1 01520U 65065H   22274.56084681  .00000105  00000+0  18663-3 0  9997
2 01520  89.9840 130.0816 0068527 325.6828 106.1782 13.35906521781825
OPS 5712 (P/L 160)      
1 02826U 67053A   22274.57289979  .00003983  00000+0  10204-2 0  9993
2 02826  69.9300  40.0603 0006668 227.6302 132.4268 14.51026010868129
OPS 5712 (P/L 153)      
1 02874U 67053H   22274.36717643  .00000019  00000+0  51964-4 0  9994
2 02874  69.9730 138.2834 0006546 177.5001 182.6138 13.96418596817612
SURCAL 150B             
1 02909U 67053J   22274.53917372  .00006245  00000+0  11820-2 0  9995
2 02909  69.9493  24.3345 0005884 257.7268 102.3215 14.64760484879142
RIGIDSPHERE 2 (LCS 4)   
1 05398U 71067E   22274.52570077  .00000613  00000+0  20684-3 0  9998
2 05398  87.6285 353.7469 0064265  37.2920 323.2712 14.34330532679466
COSMOS 2493 (SKRL-756 1)
1 39490U 13078A   22274.58859074  .00001811  00000+0  18637-3 0  9995
2 39490  82.4167 132.4690 0018419 103.2134 257.1140 14.89667751475490
COSMOS 2494 (SKRL-756 2)
1 39491U 13078B   22274.52704672  .00001942  00000+0  19240-3 0  9999
2 39491  82.4160 126.0749 0022985  80.5131 279.8684 14.91133424476061
